CYGFM07                 
1 41890U 16078G   26068.67413149  .00030437  00000+0  44091-3 0  9998
2 41890  34.9448 169.4706 0006330 323.2868  36.7422 15.54825298513476
STARLINK-1036           
1 44741U 19074AE  26068.61289611  .00135506  00000+0  18957-2 0  9998
2 44741  53.0505 188.9272 0003150 274.6586  85.4064 15.55884463348713
