[{"OBJECT_NAME":"CYGFM07","OBJECT_ID":"2016-078G","EPOCH":"2026-03-09T16:10:44.961600","MEAN_MOTION":15.54825298,"ECCENTRICITY":0.00063305,"INCLINATION":34.9448,"RA_OF_ASC_NODE":169.4706,"ARG_OF_PERICENTER":323.2868,"MEAN_ANOMALY":36.7422,"EPHEMERIS_TYPE":0,"CLASSIFICATION_TYPE":"U","NORAD_CAT_ID":41890,"ELEMENT_SET_NO":999,"REV_AT_EPOCH":51347,"BSTAR":0.00044090518,"MEAN_MOTION_DOT":0.00030437,"MEAN_MOTION_DDOT":0},{"OBJECT_NAME":"STARLINK-1036","OBJECT_ID":"2019-074AE","EPOCH":"2026-03-09T14:42:34.223904","MEAN_MOTION":15.55884463,"ECCENTRICITY":0.000315,"INCLINATION":53.0505,"RA_OF_ASC_NODE":188.9272,"ARG_OF_PERICENTER":274.6586,"MEAN_ANOMALY":85.4064,"EPHEMERIS_TYPE":0,"CLASSIFICATION_TYPE":"U","NORAD_CAT_ID":44741,"ELEMENT_SET_NO":999,"REV_AT_EPOCH":34871,"BSTAR":0.0018957,"MEAN_MOTION_DOT":0.00135506,"MEAN_MOTION_DDOT":0}]
